start=new Date('2022-03-20T00:00:00.000Z').valueOf();
sats=[{"MEAN_MOTION_DOT":"0.00005526","ARG_OF_PERICENTER":"65.9574","EPOCH":"2022-03-19T19:35:06.612000","PERIAPSIS":"546.064","MEAN_ANOMALY":"294.1583","RA_OF_ASC_NODE":"219.8467","REV_AT_EPOCH":"13119","INCLINATION":"53.0548","GP_ID":"199184566","OBJECT_ID":"2019-074G","SEMIMAJOR_AXIS":"6925.315","REF_FRAME":"TEME","ECCENTRICITY":"0.00016110","EPHEMERIS_TYPE":"0","SITE":"AFETR","MEAN_MOTION":"15.06411090","LAUNCH_DATE":"2019-11-11","APOAPSIS":"548.295","ELEMENT_SET_NO":"999","MEAN_ELEMENT_THEORY":"SGP4","TLE_LINE2":"2 44719  53.0548 219.8467 0001611  65.9574 294.1583 15.06411090131198","NORAD_CAT_ID":"44719","TLE_LINE1":"1 44719U 19074G   22078.81604875  .00005526  00000-0  38950-3 0  9990","FILE":"3366144","OBJECT_TYPE":"PAYLOAD","RCS_SIZE":"LARGE","CLASSIFICATION_TYPE":"U","OBJECT_NAME":"STARLINK-1013","MEAN_MOTION_DDOT":"0.0000000000000","DECAY_DATE":null,"COUNTRY_CODE":"US","PERIOD":"95.591","TIME_SYSTEM":"UTC","CENTER_NAME":"EARTH","BSTAR":"0.00038950000000"},{"DECAY_DATE":null,"MEAN_MOTION_DDOT":"0.0000000000000","COUNTRY_CODE":"US","OBJECT_NAME":"STARLINK-1014","CLASSIFICATION_TYPE":"U","PERIOD":"95.592","RCS_SIZE":"LARGE","FILE":"3366144","OBJECT_TYPE":"PAYLOAD","BSTAR":"0.00014906000000","TIME_SYSTEM":"UTC","CENTER_NAME":"EARTH","EPHEMERIS_TYPE":"0","SITE":"AFETR","REF_FRAME":"TEME","ECCENTRICITY":"0.00014900","TLE_LINE1":"1 44720U 19074H   22078.83446709  .00001940  00000-0  14906-3 0  9995","NORAD_CAT_ID":"44720","APOAPSIS":"548.231","ELEMENT_SET_NO":"999","MEAN_MOTION":"15.06404659","LAUNCH_DATE":"2019-11-11","TLE_LINE2":"2 44720  53.0534 219.7533 0001490  63.2996 296.8145 15.06404659130074","MEAN_ELEMENT_THEORY":"SGP4","OBJECT_ID":"2019-074H","SEMIMAJOR_AXIS":"6925.334","GP_ID":"199183340","MEAN_ANOMALY":"296.8145","MEAN_MOTION_DOT":"0.00001940","PERIAPSIS":"546.167","EPOCH":"2022-03-19T20:01:37.956576","ARG_OF_PERICENTER":"63.2996","REV_AT_EPOCH":"13007","INCLINATION":"53.0534","RA_OF_ASC_NODE":"219.7533"},{"REV_AT_EPOCH":"13006","INCLINATION":"53.0553","RA_OF_ASC_NODE":"219.8062","MEAN_ANOMALY":"287.2283","MEAN_MOTION_DOT":"0.00002111","EPOCH":"2022-03-19T19:45:43.106976","PERIAPSIS":"546.091","ARG_OF_PERICENTER":"72.8880","OBJECT_ID":"2019-074J","SEMIMAJOR_AXIS":"6925.325","GP_ID":"199183590","TLE_LINE1":"1 44721U 19074J   22078.82341559  .00002111  00000-0  16055-3 0  9990","NORAD_CAT_ID":"44721","ELEMENT_SET_NO":"999","APOAPSIS":"548.288","LAUNCH_DATE":"2019-11-11","MEAN_MOTION":"15.06407833","MEAN_ELEMENT_THEORY":"SGP4","TLE_LINE2":"2 44721  53.0553 219.8062 0001586  72.8880 287.2283 15.06407833130061","EPHEMERIS_TYPE":"0","SITE":"AFETR","REF_FRAME":"TEME","ECCENTRICITY":"0.00015860","BSTAR":"0.00016055000000","TIME_SYSTEM":"UTC","CENTER_NAME":"EARTH","DECAY_DATE":null,"MEAN_MOTION_DDOT":"0.0000000000000","COUNTRY_CODE":"US","OBJECT_NAME":"STARLINK-1015","CLASSIFICATION_TYPE":"U","PERIOD":"95.592","OBJECT_TYPE":"PAYLOAD","FILE":"3366144","RCS_SIZE":"LARGE"},{"GP_ID":"199183841","OBJECT_ID":"2019-074K","SEMIMAJOR_AXIS":"6925.329","RA_OF_ASC_NODE":"219.7923","REV_AT_EPOCH":"13007","INCLINATION":"53.0545","MEAN_MOTION_DOT":"0.00004012","ARG_OF_PERICENTER":"84.6006","PERIAPSIS":"546.256","EPOCH":"2022-03-19T19:51:02.038752","MEAN_ANOMALY":"275.5138","TIME_SYSTEM":"UTC","CENTER_NAME":"EARTH","BSTAR":"0.00028800000000","RCS_SIZE":"LARGE","FILE":"3366144","OBJECT_TYPE":"PAYLOAD","OBJECT_NAME":"STARLINK-1016","CLASSIFICATION_TYPE":"U","COUNTRY_CODE":"US","DECAY_DATE":null,"MEAN_MOTION_DDOT":"0.0000000000000","PERIOD":"95.592","MEAN_MOTION":"15.06406246","LAUNCH_DATE":"2019-11-11","ELEMENT_SET_NO":"999","APOAPSIS":"548.133","MEAN_ELEMENT_THEORY":"SGP4","TLE_LINE2":"2 44722  53.0545 219.7923 0001355  84.6006 275.5138 15.06406246130070","NORAD_CAT_ID":"44722","TLE_LINE1":"1 44722U 19074K   22078.82710693  .00004012  00000-0  28800-3 0  9993","REF_FRAME":"TEME","ECCENTRICITY":"0.00013550","EPHEMERIS_TYPE":"0","SITE":"AFETR"},{"FILE":"3366144","OBJECT_TYPE":"PAYLOAD","RCS_SIZE":"LARGE","DECAY_DATE":null,"MEAN_MOTION_DDOT":"0.0000000000000","COUNTRY_CODE":"US","CLASSIFICATION_TYPE":"U","OBJECT_NAME":"STARLINK-1017","PERIOD":"95.592","TIME_SYSTEM":"UTC","CENTER_NAME":"EARTH","BSTAR":"0.00010437000000","REF_FRAME":"TEME","ECCENTRICITY":"0.00015060","EPHEMERIS_TYPE":"0","SITE":"AFETR","APOAPSIS":"548.232","ELEMENT_SET_NO":"999","LAUNCH_DATE":"2019-11-11","MEAN_MOTION":"15.06407908","TLE_LINE2":"2 44723  53.0531 220.3338 0001506  72.2060 287.9093 15.06407908130056","MEAN_ELEMENT_THEORY":"SGP4","TLE_LINE1":"1 44723U 19074L   22078.70914323  .00001274  00000-0  10437-3 0  9991","NORAD_CAT_ID":"44723","GP_ID":"199184066","OBJECT_ID":"2019-074L","SEMIMAJOR_AXIS":"6925.324","MEAN_MOTION_DOT":"0.00001274","PERIAPSIS":"546.146","EPOCH":"2022-03-19T17:01:09.975072","ARG_OF_PERICENTER":"72.2060","MEAN_ANOMALY":"287.9093","RA_OF_ASC_NODE":"220.3338","REV_AT_EPOCH":"13005","INCLINATION":"53.0531"},{"TLE_LINE1":"1 44724U 19074M   22078.87133405  .00009337  00000-0  64445-3 0  9990","NORAD_CAT_ID":"44724","MEAN_ELEMENT_THEORY":"SGP4","TLE_LINE2":"2 44724  53.0544 219.5996 0001503  59.6168 300.4969 15.06423997130077","ELEMENT_SET_NO":"999","APOAPSIS":"548.181","MEAN_MOTION":"15.06423997","LAUNCH_DATE":"2019-11-11","SITE":"AFETR","EPHEMERIS_TYPE":"0","ECCENTRICITY":"0.00015030","REF_FRAME":"TEME","BSTAR":"0.00064445000000","CENTER_NAME":"EARTH","TIME_SYSTEM":"UTC","PERIOD":"95.591","COUNTRY_CODE":"US","DECAY_DATE":null,"MEAN_MOTION_DDOT":"0.0000000000000","OBJECT_NAME":"STARLINK-1019","CLASSIFICATION_TYPE":"U","FILE":"3366144","RCS_SIZE":"LARGE","OBJECT_TYPE":"PAYLOAD","INCLINATION":"53.0544","REV_AT_EPOCH":"13007","RA_OF_ASC_NODE":"219.5996","MEAN_ANOMALY":"300.4969","PERIAPSIS":"546.099","EPOCH":"2022-03-19T20:54:43.261920","ARG_OF_PERICENTER":"59.6168","MEAN_MOTION_DOT":"0.00009337","SEMIMAJOR_AXIS":"6925.275","OBJECT_ID":"2019-074M","GP_ID":"199182840"},{"SEMIMAJOR_AXIS":"6925.344","OBJECT_ID":"2019-074N","GP_ID":"199183090","INCLINATION":"53.0543","REV_AT_EPOCH":"12977","RA_OF_ASC_NODE":"240.1556","MEAN_ANOMALY":"287.8697","EPOCH":"2022-03-19T17:51:36.948960","PERIAPSIS":"546.157","ARG_OF_PERICENTER":"72.2458","MEAN_MOTION_DOT":"0.00003623","BSTAR":"0.00026198000000","CENTER_NAME":"EARTH","TIME_SYSTEM":"UTC","PERIOD":"95.592","DECAY_DATE":null,"MEAN_MOTION_DDOT":"0.0000000000000","COUNTRY_CODE":"US","OBJECT_NAME":"STARLINK-1020","CLASSIFICATION_TYPE":"U","FILE":"3366144","RCS_SIZE":"LARGE","OBJECT_TYPE":"PAYLOAD","TLE_LINE1":"1 44725U 19074N   22078.74417765  .00003623  00000-0  26198-3 0  9996","NORAD_CAT_ID":"44725","TLE_LINE2":"2 44725  53.0543 240.1556 0001518  72.2458 287.8697 15.06401585129778","MEAN_ELEMENT_THEORY":"SGP4","ELEMENT_SET_NO":"999","APOAPSIS":"548.260","LAUNCH_DATE":"2019-11-11","MEAN_MOTION":"15.06401585","SITE":"AFETR","EPHEMERIS_TYPE":"0","ECCENTRICITY":"0.00015180","REF_FRAME":"TEME"},{"RA_OF_ASC_NODE":"219.6191","REV_AT_EPOCH":"13007","INCLINATION":"53.0530","MEAN_MOTION_DOT":"0.00002437","PERIAPSIS":"546.202","EPOCH":"2022-03-19T20:49:23.974176","ARG_OF_PERICENTER":"71.5429","MEAN_ANOMALY":"288.5714","GP_ID":"199184342","OBJECT_ID":"2019-074P","SEMIMAJOR_AXIS":"6925.320","ELEMENT_SET_NO":"999","APOAPSIS":"548.167","MEAN_MOTION":"15.06409410","LAUNCH_DATE":"2019-11-11","MEAN_ELEMENT_THEORY":"SGP4","TLE_LINE2":"2 44726  53.0530 219.6191 0001419  71.5429 288.5714 15.06409410130079","TLE_LINE1":"1 44726U 19074P   22078.86763859  .00002437  00000-0  18239-3 0  9997","NORAD_CAT_ID":"44726","REF_FRAME":"TEME","ECCENTRICITY":"0.00014190","EPHEMERIS_TYPE":"0","SITE":"AFETR","TIME_SYSTEM":"UTC","CENTER_NAME":"EARTH","BSTAR":"0.00018239000000","FILE":"3366144","RCS_SIZE":"LARGE","OBJECT_TYPE":"PAYLOAD","DECAY_DATE":null,"COUNTRY_CODE":"US","MEAN_MOTION_DDOT":"0.0000000000000","CLASSIFICATION_TYPE":"U","OBJECT_NAME":"STARLINK-1021","PERIOD":"95.592"},{"GP_ID":"199184567","OBJECT_ID":"2019-074Q","SEMIMAJOR_AXIS":"6925.345","MEAN_MOTION_DOT":"0.00000939","ARG_OF_PERICENTER":"59.1364","PERIAPSIS":"546.047","EPOCH":"2022-03-19T21:41:07.230624","MEAN_ANOMALY":"300.9790","RA_OF_ASC_NODE":"259.4550","REV_AT_EPOCH":"12953","INCLINATION":"53.0527","FILE":"3366144","RCS_SIZE":"LARGE","OBJECT_TYPE":"PAYLOAD","OBJECT_NAME":"STARLINK-1022","CLASSIFICATION_TYPE":"U","COUNTRY_CODE":"US","DECAY_DATE":null,"MEAN_MOTION_DDOT":"0.0000000000000","PERIOD":"95.592","TIME_SYSTEM":"UTC","CENTER_NAME":"EARTH","BSTAR":"0.00008194100000","REF_FRAME":"TEME","ECCENTRICITY":"0.00016800","EPHEMERIS_TYPE":"0","SITE":"AFETR","LAUNCH_DATE":"2019-11-11","MEAN_MOTION":"15.06401051","APOAPSIS":"548.374","ELEMENT_SET_NO":"999","TLE_LINE2":"2 44727  53.0527 259.4550 0001680  59.1364 300.9790 15.06401051129532","MEAN_ELEMENT_THEORY":"SGP4","NORAD_CAT_ID":"44727","TLE_LINE1":"1 44727U 19074Q   22078.90355591  .00000939  00000-0  81941-4 0  9999"},{"CENTER_NAME":"EARTH","TIME_SYSTEM":"UTC","BSTAR":"0.00050768000000","FILE":"3366144","RCS_SIZE":"LARGE","OBJECT_TYPE":"PAYLOAD","PERIOD":"95.344","DECAY_DATE":null,"COUNTRY_CODE":"US","MEAN_MOTION_DDOT":"0.0000000000000","CLASSIFICATION_TYPE":"U","OBJECT_NAME":"STARLINK-1024","TLE_LINE2":"2 44729  53.0015 233.3069 0001629  68.9118 291.2046 15.10324180129853","MEAN_ELEMENT_THEORY":"SGP4","APOAPSIS":"536.339","ELEMENT_SET_NO":"999","MEAN_MOTION":"15.10324180","LAUNCH_DATE":"2019-11-11","TLE_LINE1":"1 44729U 19074S   22078.86429809  .00008134  00000-0  50768-3 0  9997","NORAD_CAT_ID":"44729","ECCENTRICITY":"0.00016290","REF_FRAME":"TEME","SITE":"AFETR","EPHEMERIS_TYPE":"0","GP_ID":"199183341","SEMIMAJOR_AXIS":"6913.348","OBJECT_ID":"2019-074S","RA_OF_ASC_NODE":"233.3069","INCLINATION":"53.0015","REV_AT_EPOCH":"12985","PERIAPSIS":"534.086","EPOCH":"2022-03-19T20:44:35.354976","ARG_OF_PERICENTER":"68.9118","MEAN_MOTION_DOT":"0.00008134","MEAN_ANOMALY":"291.2046"}];
